[
  {
    "COMMENT": "GENERATED VIA SPACETRACK.ORG API",
    "ORIGINATOR": "18 SPCS",
    "NORAD_CAT_ID": "54754",
    "OBJECT_NAME": "SWOT",
    "OBJECT_TYPE": "PAYLOAD",
    "CLASSIFICATION_TYPE": "U",
    "INTLDES": "22173A",
    "EPOCH": "2023-04-20 13:45:38",
    "EPOCH_MICROSECONDS": "583072",
    "MEAN_MOTION": "14.09854318",
    "ECCENTRICITY": "0.0001082",
    "INCLINATION": "77.6049",
    "RA_OF_ASC_NODE": "154.3954",
    "ARG_OF_PERICENTER": "212.0089",
    "MEAN_ANOMALY": "148.1002",
    "EPHEMERIS_TYPE": "0",
    "ELEMENT_SET_NO": "999",
    "REV_AT_EPOCH": "1762",
    "BSTAR": "0.00016606",
    "MEAN_MOTION_DOT": "0.00000289",
    "MEAN_MOTION_DDOT": "0",
    "FILE": "3890827",
    "TLE_LINE0": "0 SWOT",
    "TLE_LINE1": "1 54754U 22173A   23110.57336323  .00000289  00000-0  16606-3 0  9990",
    "TLE_LINE2": "2 54754  77.6049 154.3954 0001082 212.0089 148.1002 14.09854318 17629",
    "OBJECT_ID": "2022-173A",
    "OBJECT_NUMBER": "54754",
    "SEMIMAJOR_AXIS": "7238.007",
    "PERIOD": "102.138",
    "APOGEE": "860.655",
    "PERIGEE": "859.089",
    "DECAYED": "0"
  },
  {
    "COMMENT": "GENERATED VIA SPACETRACK.ORG API",
    "ORIGINATOR": "18 SPCS",
    "NORAD_CAT_ID": "54754",
    "OBJECT_NAME": "SWOT",
    "OBJECT_TYPE": "PAYLOAD",
    "CLASSIFICATION_TYPE": "U",
    "INTLDES": "22173A",
    "EPOCH": "2023-04-20 20:34:23",
    "EPOCH_MICROSECONDS": "654208",
    "MEAN_MOTION": "14.09854453",
    "ECCENTRICITY": "0.0001082",
    "INCLINATION": "77.6049",
    "RA_OF_ASC_NODE": "154.0059",
    "ARG_OF_PERICENTER": "211.7848",
    "MEAN_ANOMALY": "148.3244",
    "EPHEMERIS_TYPE": "0",
    "ELEMENT_SET_NO": "999",
    "REV_AT_EPOCH": "1766",
    "BSTAR": "0.00016141",
    "MEAN_MOTION_DOT": "0.00000281",
    "MEAN_MOTION_DDOT": "0",
    "FILE": "3891109",
    "TLE_LINE0": "0 SWOT",
    "TLE_LINE1": "1 54754U 22173A   23110.85721822  .00000281  00000-0  16141-3 0  9999",
    "TLE_LINE2": "2 54754  77.6049 154.0059 0001082 211.7848 148.3244 14.09854453 17665",
    "OBJECT_ID": "2022-173A",
    "OBJECT_NUMBER": "54754",
    "SEMIMAJOR_AXIS": "7238.007",
    "PERIOD": "102.138",
    "APOGEE": "860.655",
    "PERIGEE": "859.089",
    "DECAYED": "0"
  },
  {
    "COMMENT": "GENERATED VIA SPACETRACK.ORG API",
    "ORIGINATOR": "18 SPCS",
    "NORAD_CAT_ID": "54754",
    "OBJECT_NAME": "SWOT",
    "OBJECT_TYPE": "PAYLOAD",
    "CLASSIFICATION_TYPE": "U",
    "INTLDES": "22173A",
    "EPOCH": "2023-04-21 13:36:16",
    "EPOCH_MICROSECONDS": "325568",
    "MEAN_MOTION": "14.09854799",
    "ECCENTRICITY": "0.0001087",
    "INCLINATION": "77.6048",
    "RA_OF_ASC_NODE": "153.0322",
    "ARG_OF_PERICENTER": "211.6848",
    "MEAN_ANOMALY": "148.4243",
    "EPHEMERIS_TYPE": "0",
    "ELEMENT_SET_NO": "999",
    "REV_AT_EPOCH": "1776",
    "BSTAR": "0.00015241",
    "MEAN_MOTION_DOT": "0.00000265",
    "MEAN_MOTION_DDOT": "0",
    "FILE": "3891476",
    "TLE_LINE0": "0 SWOT",
    "TLE_LINE1": "1 54754U 22173A   23111.56685562  .00000265  00000-0  15241-3 0  9990",
    "TLE_LINE2": "2 54754  77.6048 153.0322 0001087 211.6848 148.4243 14.09854799 17764",
    "OBJECT_ID": "2022-173A",
    "OBJECT_NUMBER": "54754",
    "SEMIMAJOR_AXIS": "7238.006",
    "PERIOD": "102.138",
    "APOGEE": "860.657",
    "PERIGEE": "859.084",
    "DECAYED": "0"
  },
  {
    "COMMENT": "GENERATED VIA SPACETRACK.ORG API",
    "ORIGINATOR": "18 SPCS",
    "NORAD_CAT_ID": "54754",
    "OBJECT_NAME": "SWOT",
    "OBJECT_TYPE": "PAYLOAD",
    "CLASSIFICATION_TYPE": "U",
    "INTLDES": "22173A",
    "EPOCH": "2023-04-21 13:36:16",
    "EPOCH_MICROSECONDS": "325568",
    "MEAN_MOTION": "14.09854799",
    "ECCENTRICITY": "0.0001087",
    "INCLINATION": "77.6048",
    "RA_OF_ASC_NODE": "153.0322",
    "ARG_OF_PERICENTER": "211.6848",
    "MEAN_ANOMALY": "148.4243",
    "EPHEMERIS_TYPE": "0",
    "ELEMENT_SET_NO": "999",
    "REV_AT_EPOCH": "1776",
    "BSTAR": "0.00015241",
    "MEAN_MOTION_DOT": "0.00000265",
    "MEAN_MOTION_DDOT": "0",
    "FILE": "3891529",
    "TLE_LINE0": "0 SWOT",
    "TLE_LINE1": "1 54754U 22173A   23111.56685562  .00000265  00000-0  15241-3 0  9990",
    "TLE_LINE2": "2 54754  77.6048 153.0322 0001087 211.6848 148.4243 14.09854799 17764",
    "OBJECT_ID": "2022-173A",
    "OBJECT_NUMBER": "54754",
    "SEMIMAJOR_AXIS": "7238.006",
    "PERIOD": "102.138",
    "APOGEE": "860.657",
    "PERIGEE": "859.084",
    "DECAYED": "0"
  },
  {
    "COMMENT": "GENERATED VIA SPACETRACK.ORG API",
    "ORIGINATOR": "18 SPCS",
    "NORAD_CAT_ID": "54754",
    "OBJECT_NAME": "SWOT",
    "OBJECT_TYPE": "PAYLOAD",
    "CLASSIFICATION_TYPE": "U",
    "INTLDES": "22173A",
    "EPOCH": "2023-04-21 20:25:01",
    "EPOCH_MICROSECONDS": "386336",
    "MEAN_MOTION": "14.09854954",
    "ECCENTRICITY": "0.0001089",
    "INCLINATION": "77.6048",
    "RA_OF_ASC_NODE": "152.6426",
    "ARG_OF_PERICENTER": "211.7072",
    "MEAN_ANOMALY": "148.4019",
    "EPHEMERIS_TYPE": "0",
    "ELEMENT_SET_NO": "999",
    "REV_AT_EPOCH": "1780",
    "BSTAR": "0.00014967",
    "MEAN_MOTION_DOT": "0.00000261",
    "MEAN_MOTION_DDOT": "0",
    "FILE": "3891716",
    "TLE_LINE0": "0 SWOT",
    "TLE_LINE1": "1 54754U 22173A   23111.85071049  .00000261  00000-0  14967-3 0  9991",
    "TLE_LINE2": "2 54754  77.6048 152.6426 0001089 211.7072 148.4019 14.09854954 17805",
    "OBJECT_ID": "2022-173A",
    "OBJECT_NUMBER": "54754",
    "SEMIMAJOR_AXIS": "7238.005",
    "PERIOD": "102.138",
    "APOGEE": "860.658",
    "PERIGEE": "859.082",
    "DECAYED": "0"
  },
  {
    "COMMENT": "GENERATED VIA SPACETRACK.ORG API",
    "ORIGINATOR": "18 SPCS",
    "NORAD_CAT_ID": "54754",
    "OBJECT_NAME": "SWOT",
    "OBJECT_TYPE": "PAYLOAD",
    "CLASSIFICATION_TYPE": "U",
    "INTLDES": "22173A",
    "EPOCH": "2023-04-22 01:31:35",
    "EPOCH_MICROSECONDS": "186016",
    "MEAN_MOTION": "14.0985503",
    "ECCENTRICITY": "0.0001092",
    "INCLINATION": "77.6047",
    "RA_OF_ASC_NODE": "152.3505",
    "ARG_OF_PERICENTER": "211.1666",
    "MEAN_ANOMALY": "148.9426",
    "EPHEMERIS_TYPE": "0",
    "ELEMENT_SET_NO": "999",
    "REV_AT_EPOCH": "1783",
    "BSTAR": "0.0001421",
    "MEAN_MOTION_DOT": "0.00000247",
    "MEAN_MOTION_DDOT": "0",
    "FILE": "3892071",
    "TLE_LINE0": "0 SWOT",
    "TLE_LINE1": "1 54754U 22173A   23112.06360169  .00000247  00000-0  14210-3 0  9994",
    "TLE_LINE2": "2 54754  77.6047 152.3505 0001092 211.1666 148.9426 14.09855030 17832",
    "OBJECT_ID": "2022-173A",
    "OBJECT_NUMBER": "54754",
    "SEMIMAJOR_AXIS": "7238.005",
    "PERIOD": "102.138",
    "APOGEE": "860.660",
    "PERIGEE": "859.079",
    "DECAYED": "0"
  },
  {
    "COMMENT": "GENERATED VIA SPACETRACK.ORG API",
    "ORIGINATOR": "18 SPCS",
    "NORAD_CAT_ID": "54754",
    "OBJECT_NAME": "SWOT",
    "OBJECT_TYPE": "PAYLOAD",
    "CLASSIFICATION_TYPE": "U",
    "INTLDES": "22173A",
    "EPOCH": "2023-04-23 06:28:47",
    "EPOCH_MICROSECONDS": "105760",
    "MEAN_MOTION": "14.09850611",
    "ECCENTRICITY": "0.000108",
    "INCLINATION": "77.6047",
    "RA_OF_ASC_NODE": "150.6952",
    "ARG_OF_PERICENTER": "212.2011",
    "MEAN_ANOMALY": "147.908",
    "EPHEMERIS_TYPE": "0",
    "ELEMENT_SET_NO": "999",
    "REV_AT_EPOCH": "1800",
    "BSTAR": "0.00012887",
    "MEAN_MOTION_DOT": "0.00000224",
    "MEAN_MOTION_DDOT": "0",
    "FILE": "3892464",
    "TLE_LINE0": "0 SWOT",
    "TLE_LINE1": "1 54754U 22173A   23113.26998965  .00000224  00000-0  12887-3 0  9991",
    "TLE_LINE2": "2 54754  77.6047 150.6952 0001080 212.2011 147.9080 14.09850611 18007",
    "OBJECT_ID": "2022-173A",
    "OBJECT_NUMBER": "54754",
    "SEMIMAJOR_AXIS": "7238.020",
    "PERIOD": "102.138",
    "APOGEE": "860.667",
    "PERIGEE": "859.103",
    "DECAYED": "0"
  },
  {
    "COMMENT": "GENERATED VIA SPACETRACK.ORG API",
    "ORIGINATOR": "18 SPCS",
    "NORAD_CAT_ID": "54754",
    "OBJECT_NAME": "SWOT",
    "OBJECT_TYPE": "PAYLOAD",
    "CLASSIFICATION_TYPE": "U",
    "INTLDES": "22173A",
    "EPOCH": "2023-04-23 13:17:32",
    "EPOCH_MICROSECONDS": "244288",
    "MEAN_MOTION": "14.09850645",
    "ECCENTRICITY": "0.0001086",
    "INCLINATION": "77.6047",
    "RA_OF_ASC_NODE": "150.3057",
    "ARG_OF_PERICENTER": "212.0315",
    "MEAN_ANOMALY": "148.0776",
    "EPHEMERIS_TYPE": "0",
    "ELEMENT_SET_NO": "999",
    "REV_AT_EPOCH": "1804",
    "BSTAR": "0.000099094",
    "MEAN_MOTION_DOT": "0.00000172",
    "MEAN_MOTION_DDOT": "0",
    "FILE": "3892688",
    "TLE_LINE0": "0 SWOT",
    "TLE_LINE1": "1 54754U 22173A   23113.55384542  .00000172  00000-0  99094-4 0  9991",
    "TLE_LINE2": "2 54754  77.6047 150.3057 0001086 212.0315 148.0776 14.09850645 18046",
    "OBJECT_ID": "2022-173A",
    "OBJECT_NUMBER": "54754",
    "SEMIMAJOR_AXIS": "7238.020",
    "PERIOD": "102.138",
    "APOGEE": "860.671",
    "PERIGEE": "859.099",
    "DECAYED": "0"
  },
  {
    "COMMENT": "GENERATED VIA SPACETRACK.ORG API",
    "ORIGINATOR": "18 SPCS",
    "NORAD_CAT_ID": "54754",
    "OBJECT_NAME": "SWOT",
    "OBJECT_TYPE": "PAYLOAD",
    "CLASSIFICATION_TYPE": "U",
    "INTLDES": "22173A",
    "EPOCH": "2023-04-23 21:48:28",
    "EPOCH_MICROSECONDS": "662048",
    "MEAN_MOTION": "14.09850808",
    "ECCENTRICITY": "0.0001084",
    "INCLINATION": "77.6047",
    "RA_OF_ASC_NODE": "149.8188",
    "ARG_OF_PERICENTER": "211.7288",
    "MEAN_ANOMALY": "148.3803",
    "EPHEMERIS_TYPE": "0",
    "ELEMENT_SET_NO": "999",
    "REV_AT_EPOCH": "1809",
    "BSTAR": "0.000098741",
    "MEAN_MOTION_DOT": "0.00000171",
    "MEAN_MOTION_DDOT": "0",
    "FILE": "3892831",
    "TLE_LINE0": "0 SWOT",
    "TLE_LINE1": "1 54754U 22173A   23113.90866507  .00000171  00000-0  98741-4 0  9993",
    "TLE_LINE2": "2 54754  77.6047 149.8188 0001084 211.7288 148.3803 14.09850808 18097",
    "OBJECT_ID": "2022-173A",
    "OBJECT_NUMBER": "54754",
    "SEMIMAJOR_AXIS": "7238.019",
    "PERIOD": "102.138",
    "APOGEE": "860.669",
    "PERIGEE": "859.100",
    "DECAYED": "0"
  }
]